1 27424U 02022A   10181.56843237 +.00000055 +00000-0 +22257-4 0 06791
2 27424 098.1881 122.6536 0002166 071.1907 288.9515 14.57127451433860